TRANSPORTER-10 OBJECT AD
1 59125U 24043AD  26068.86032889  .00011954  00000+0  36311-3 0  9997
2 59125  97.5470 207.3753 0008984 221.4908 138.5653 15.34189901112026
STARLINK-32308          
1 61663U 24193C   26068.44636720  .00004453  00000+0  16242-3 0  9998
2 61663  53.1602  91.8332 0001101  88.1273 271.9854 15.30190514 76490
