[{"OBJECT_NAME":"TRANSPORTER-10 OBJECT AD","OBJECT_ID":"2024-043AD","EPOCH":"2026-03-09T20:38:52.416960","MEAN_MOTION":15.34189901,"ECCENTRICITY":0.00089841,"INCLINATION":97.547,"RA_OF_ASC_NODE":207.3753,"ARG_OF_PERICENTER":221.4908,"MEAN_ANOMALY":138.5653,"EPHEMERIS_TYPE":0,"CLASSIFICATION_TYPE":"U","NORAD_CAT_ID":59125,"ELEMENT_SET_NO":999,"REV_AT_EPOCH":11202,"BSTAR":0.00036310552,"MEAN_MOTION_DOT":0.00011954,"MEAN_MOTION_DDOT":0},{"OBJECT_NAME":"STARLINK-32308","OBJECT_ID":"2024-193C","EPOCH":"2026-03-09T10:42:46.126080","MEAN_MOTION":15.30190514,"ECCENTRICITY":0.00011015,"INCLINATION":53.1602,"RA_OF_ASC_NODE":91.8332,"ARG_OF_PERICENTER":88.1273,"MEAN_ANOMALY":271.9854,"EPHEMERIS_TYPE":0,"CLASSIFICATION_TYPE":"U","NORAD_CAT_ID":61663,"ELEMENT_SET_NO":999,"REV_AT_EPOCH":7649,"BSTAR":0.00016241551,"MEAN_MOTION_DOT":4.453e-5,"MEAN_MOTION_DDOT":0}]
